{"type":"FeatureCollection","features":[{"type":"Feature","properties":{"capital":"Kabul","country":"Afghanistan","iso_a2":"AF"},"geometry":{"type":"Point","coordinates":[69.181314,34.518636]}},{"type":"Feature","properties":{"capital":"Tirana","country":"Albania","iso_a2":"AL"},"geometry":{"type":"Point","coordinates":[19.818883,41.327541]}},{"type":"Feature","properties":{"capital":"Algiers","country":"Algeria","iso_a2":"DZ"},"geometry":{"type":"Point","coordinates":[3.048607,36.765011]}},{"type":"Feature","properties":{"capital":"Andorra","country":"Andorra","iso_a2":"AD"},"geometry":{"type":"Point","coordinates":[1.516486,42.500001]}},{"type":"Feature","properties":{"capital":"Luanda","country":"Angola","iso_a2":"AO"},"geometry":{"type":"Point","coordinates":[13.232481,-8.83634]}},{"type":"Feature","properties":{"capital":"Saint John's","country":"Antigua and Barbuda","iso_a2":"AG"},"geometry":{"type":"Point","coordinates":[-61.850034,17.118037]}},{"type":"Feature","properties":{"capital":"Buenos Aires","country":"Argentina","iso_a2":"AR"},"geometry":{"type":"Point","coordinates":[-58.399477,-34.600556]}},{"type":"Feature","properties":{"capital":"Yerevan","country":"Armenia","iso_a2":"AM"},"geometry":{"type":"Point","coordinates":[44.511606,40.183097]}},{"type":"Feature","properties":{"capital":"Canberra","country":"Australia","iso_a2":"AU"},"geometry":{"type":"Point","coordinates":[149.129026,-35.283029]}},{"type":"Feature","properties":{"capital":"Vienna","country":"Austria","iso_a2":"AT"},"geometry":{"type":"Point","coordinates":[16.364693,48.201961]}},{"type":"Feature","properties":{"capital":"Baku","country":"Azerbaijan","iso_a2":"AZ"},"geometry":{"type":"Point","coordinates":[49.860271,40.397218]}},{"type":"Feature","properties":{"capital":"Manama","country":"Bahrain","iso_a2":"BH"},"geometry":{"type":"Point","coordinates":[50.583052,26.236136]}},{"type":"Feature","properties":{"capital":"Dhaka","country":"Bangladesh","iso_a2":"BD"},"geometry":{"type":"Point","coordinates":[90.406634,23.725006]}},{"type":"Feature","properties":{"capital":"Bridgetown","country":"Barbados","iso_a2":"BB"},"geometry":{"type":"Point","coordinates":[-59.616527,13.102003]}},{"type":"Feature","properties":{"capital":"Minsk","country":"Belarus","iso_a2":"BY"},"geometry":{"type":"Point","coordinates":[27.564681,53.901923]}},{"type":"Feature","properties":{"capital":"Brussels","country":"Belgium","iso_a2":"BE"},"geometry":{"type":"Point","coordinates":[4.331371,50.835263]}},{"type":"Feature","properties":{"capital":"Belmopan","country":"Belize","iso_a2":"BZ"},"geometry":{"type":"Point","coordinates":[-88.767073,17.252034]}},{"type":"Feature","properties":{"capital":"Cotonou","country":"Benin","iso_a2":"BJ"},"geometry":{"type":"Point","coordinates":[2.518045,6.401954]}},{"type":"Feature","properties":{"capital":"Thimphu","country":"Bhutan","iso_a2":"BT"},"geometry":{"type":"Point","coordinates":[89.639014,27.472986]}},{"type":"Feature","properties":{"capital":"Sucre","country":"Bolivia","iso_a2":"BO"},"geometry":{"type":"Point","coordinates":[-65.259516,-19.040971]}},{"type":"Feature","properties":{"capital":"La Paz","country":"Bolivia","iso_a2":"BO"},"geometry":{"type":"Point","coordinates":[-68.151931,-16.496028]}},{"type":"Feature","properties":{"capital":"Sarajevo","country":"Bosnia and Herzegovina","iso_a2":"BA"},"geometry":{"type":"Point","coordinates":[18.383002,43.850022]}},{"type":"Feature","properties":{"capital":"Gaborone","country":"Botswana","iso_a2":"BW"},"geometry":{"type":"Point","coordinates":[25.911948,-24.646314]}},{"type":"Feature","properties":{"capital":"Brasília","country":"Brazil","iso_a2":"BR"},"geometry":{"type":"Point","coordinates":[-47.917998,-15.781394]}},{"type":"Feature","properties":{"capital":"Bandar Seri Begawan","country":"Brunei","iso_a2":"BN"},"geometry":{"type":"Point","coordinates":[114.933284,4.883331]}},{"type":"Feature","properties":{"capital":"Sofia","country":"Bulgaria","iso_a2":"BG"},"geometry":{"type":"Point","coordinates":[23.314708,42.685295]}},{"type":"Feature","properties":{"capital":"Ouagadougou","country":"Burkina Faso","iso_a2":"BF"},"geometry":{"type":"Point","coordinates":[-1.52667,12.372262]}},{"type":"Feature","properties":{"capital":"Bujumbura","country":"Burundi","iso_a2":"BI"},"geometry":{"type":"Point","coordinates":[29.360006,-3.376087]}},{"type":"Feature","properties":{"capital":"Phnom Penh","country":"Cambodia","iso_a2":"KH"},"geometry":{"type":"Point","coordinates":[104.914689,11.551976]}},{"type":"Feature","properties":{"capital":"Yaoundé","country":"Cameroon","iso_a2":"CM"},"geometry":{"type":"Point","coordinates":[11.514705,3.868647]}},{"type":"Feature","properties":{"capital":"Ottawa","country":"Canada","iso_a2":"CA"},"geometry":{"type":"Point","coordinates":[-75.701961,45.418643]}},{"type":"Feature","properties":{"capital":"Praia","country":"Cape Verde","iso_a2":"CV"},"geometry":{"type":"Point","coordinates":[-23.516689,14.916698]}},{"type":"Feature","properties":{"capital":"Bangui","country":"Central African Republic","iso_a2":"CF"},"geometry":{"type":"Point","coordinates":[18.558288,4.366644]}},{"type":"Feature","properties":{"capital":"N'Djamena","country":"Chad","iso_a2":"TD"},"geometry":{"type":"Point","coordinates":[15.047203,12.115042]}},{"type":"Feature","properties":{"capital":"Santiago","country":"Chile","iso_a2":"CL"},"geometry":{"type":"Point","coordinates":[-70.668987,-33.448068]}},{"type":"Feature","properties":{"capital":"Beijing","country":"China","iso_a2":"CN"},"geometry":{"type":"Point","coordinates":[116.38634,39.930838]}},{"type":"Feature","properties":{"capital":"Bogota","country":"Colombia","iso_a2":"CO"},"geometry":{"type":"Point","coordinates":[-74.08529,4.598369]}},{"type":"Feature","properties":{"capital":"Moroni","country":"Comoros","iso_a2":"KM"},"geometry":{"type":"Point","coordinates":[43.240244,-11.704158]}},{"type":"Feature","properties":{"capital":"Brazzaville","country":"Congo (Brazzaville)","iso_a2":"CG"},"geometry":{"type":"Point","coordinates":[15.282744,-4.25724]}},{"type":"Feature","properties":{"capital":"Kinshasa","country":"Congo (Kinshasa)","iso_a2":"CD"},"geometry":{"type":"Point","coordinates":[15.313026,-4.327778]}},{"type":"Feature","properties":{"capital":"San José","country":"Costa Rica","iso_a2":"CR"},"geometry":{"type":"Point","coordinates":[-84.085997,9.936958]}},{"type":"Feature","properties":{"capital":"Zagreb","country":"Croatia","iso_a2":"HR"},"geometry":{"type":"Point","coordinates":[15.999995,45.800007]}},{"type":"Feature","properties":{"capital":"Havana","country":"Cuba","iso_a2":"CU"},"geometry":{"type":"Point","coordinates":[-82.366128,23.133905]}},{"type":"Feature","properties":{"capital":"Nicosia","country":"Cyprus","iso_a2":"CY"},"geometry":{"type":"Point","coordinates":[33.366635,35.166677]}},{"type":"Feature","properties":{"capital":"Prague","country":"Czechia","iso_a2":"CZ"},"geometry":{"type":"Point","coordinates":[14.464034,50.085283]}},{"type":"Feature","properties":{"capital":"København","country":"Denmark","iso_a2":"DK"},"geometry":{"type":"Point","coordinates":[12.56154,55.68051]}},{"type":"Feature","properties":{"capital":"Djibouti","country":"Djibouti","iso_a2":"DJ"},"geometry":{"type":"Point","coordinates":[43.148002,11.595015]}},{"type":"Feature","properties":{"capital":"Roseau","country":"Dominica","iso_a2":"DM"},"geometry":{"type":"Point","coordinates":[-61.387013,15.301016]}},{"type":"Feature","properties":{"capital":"Santo Domingo","country":"Dominican Republic","iso_a2":"DO"},"geometry":{"type":"Point","coordinates":[-69.902031,18.472019]}},{"type":"Feature","properties":{"capital":"Dili","country":"East Timor","iso_a2":"TL"},"geometry":{"type":"Point","coordinates":[125.579456,-8.559388]}},{"type":"Feature","properties":{"capital":"Quito","country":"Ecuador","iso_a2":"EC"},"geometry":{"type":"Point","coordinates":[-78.501997,-0.213042]}},{"type":"Feature","properties":{"capital":"Cairo","country":"Egypt","iso_a2":"EG"},"geometry":{"type":"Point","coordinates":[31.248022,30.051906]}},{"type":"Feature","properties":{"capital":"San Salvador","country":"El Salvador","iso_a2":"SV"},"geometry":{"type":"Point","coordinates":[-89.204987,13.711948]}},{"type":"Feature","properties":{"capital":"Malabo","country":"Equatorial Guinea","iso_a2":"GQ"},"geometry":{"type":"Point","coordinates":[8.783278,3.750015]}},{"type":"Feature","properties":{"capital":"Asmara","country":"Eritrea","iso_a2":"ER"},"geometry":{"type":"Point","coordinates":[38.933324,15.333339]}},{"type":"Feature","properties":{"capital":"Tallinn","country":"Estonia","iso_a2":"EE"},"geometry":{"type":"Point","coordinates":[24.728041,59.433877]}},{"type":"Feature","properties":{"capital":"Mbabane","country":"eSwatini","iso_a2":"SZ"},"geometry":{"type":"Point","coordinates":[31.133335,-26.316651]}},{"type":"Feature","properties":{"capital":"Addis Ababa","country":"Ethiopia","iso_a2":"ET"},"geometry":{"type":"Point","coordinates":[38.698059,9.035256]}},{"type":"Feature","properties":{"capital":"Palikir","country":"Federated States of Micronesia","iso_a2":"FM"},"geometry":{"type":"Point","coordinates":[158.149974,6.916644]}},{"type":"Feature","properties":{"capital":"Suva","country":"Fiji","iso_a2":"FJ"},"geometry":{"type":"Point","coordinates":[178.441707,-18.133016]}},{"type":"Feature","properties":{"capital":"Helsinki","country":"Finland","iso_a2":"FI"},"geometry":{"type":"Point","coordinates":[24.932181,60.177509]}},{"type":"Feature","properties":{"capital":"Paris","country":"France","iso_a2":"FR"},"geometry":{"type":"Point","coordinates":[2.33139,48.868639]}},{"type":"Feature","properties":{"capital":"Libreville","country":"Gabon","iso_a2":"GA"},"geometry":{"type":"Point","coordinates":[9.457965,0.385389]}},{"type":"Feature","properties":{"capital":"Tbilisi","country":"Georgia","iso_a2":"GE"},"geometry":{"type":"Point","coordinates":[44.78885,41.726956]}},{"type":"Feature","properties":{"capital":"Berlin","country":"Germany","iso_a2":"DE"},"geometry":{"type":"Point","coordinates":[13.399603,52.523765]}},{"type":"Feature","properties":{"capital":"Accra","country":"Ghana","iso_a2":"GH"},"geometry":{"type":"Point","coordinates":[-0.218662,5.551981]}},{"type":"Feature","properties":{"capital":"Athens","country":"Greece","iso_a2":"GR"},"geometry":{"type":"Point","coordinates":[23.731375,37.985272]}},{"type":"Feature","properties":{"capital":"Saint George's","country":"Grenada","iso_a2":"GD"},"geometry":{"type":"Point","coordinates":[-61.741643,12.052633]}},{"type":"Feature","properties":{"capital":"Guatemala City","country":"Guatemala","iso_a2":"GT"},"geometry":{"type":"Point","coordinates":[-90.528911,14.623081]}},{"type":"Feature","properties":{"capital":"Conakry","country":"Guinea","iso_a2":"GN"},"geometry":{"type":"Point","coordinates":[-13.682181,9.533469]}},{"type":"Feature","properties":{"capital":"Bissau","country":"Guinea Bissau","iso_a2":"GW"},"geometry":{"type":"Point","coordinates":[-15.598361,11.865024]}},{"type":"Feature","properties":{"capital":"Georgetown","country":"Guyana","iso_a2":"GY"},"geometry":{"type":"Point","coordinates":[-58.167029,6.801974]}},{"type":"Feature","properties":{"capital":"Port-au-Prince","country":"Haiti","iso_a2":"HT"},"geometry":{"type":"Point","coordinates":[-72.33798,18.542971]}},{"type":"Feature","properties":{"capital":"Tegucigalpa","country":"Honduras","iso_a2":"HN"},"geometry":{"type":"Point","coordinates":[-87.219475,14.103991]}},{"type":"Feature","properties":{"capital":"Budapest","country":"Hungary","iso_a2":"HU"},"geometry":{"type":"Point","coordinates":[19.081375,47.501952]}},{"type":"Feature","properties":{"capital":"Reykjavík","country":"Iceland","iso_a2":"IS"},"geometry":{"type":"Point","coordinates":[-21.950015,64.150024]}},{"type":"Feature","properties":{"capital":"New Delhi","country":"India","iso_a2":"IN"},"geometry":{"type":"Point","coordinates":[77.19998,28.600023]}},{"type":"Feature","properties":{"capital":"Jakarta","country":"Indonesia","iso_a2":"ID"},"geometry":{"type":"Point","coordinates":[106.827492,-6.172472]}},{"type":"Feature","properties":{"capital":"Tehran","country":"Iran","iso_a2":"IR"},"geometry":{"type":"Point","coordinates":[51.422398,35.673889]}},{"type":"Feature","properties":{"capital":"Baghdad","country":"Iraq","iso_a2":"IQ"},"geometry":{"type":"Point","coordinates":[44.391923,33.340594]}},{"type":"Feature","properties":{"capital":"Dublin","country":"Ireland","iso_a2":"IE"},"geometry":{"type":"Point","coordinates":[-6.250852,53.335007]}},{"type":"Feature","properties":{"capital":"Jerusalem","country":"Israel","iso_a2":"IL"},"geometry":{"type":"Point","coordinates":[35.206626,31.778408]}},{"type":"Feature","properties":{"capital":"Rome","country":"Italy","iso_a2":"IT"},"geometry":{"type":"Point","coordinates":[12.481313,41.897902]}},{"type":"Feature","properties":{"capital":"Yamoussoukro","country":"Ivory Coast","iso_a2":"CI"},"geometry":{"type":"Point","coordinates":[-5.275503,6.818381]}},{"type":"Feature","properties":{"capital":"Abidjan","country":"Ivory Coast","iso_a2":"CI"},"geometry":{"type":"Point","coordinates":[-4.041994,5.321943]}},{"type":"Feature","properties":{"capital":"Kingston","country":"Jamaica","iso_a2":"JM"},"geometry":{"type":"Point","coordinates":[-76.767434,17.977077]}},{"type":"Feature","properties":{"capital":"Tokyo","country":"Japan","iso_a2":"JP"},"geometry":{"type":"Point","coordinates":[139.749462,35.686963]}},{"type":"Feature","properties":{"capital":"Amman","country":"Jordan","iso_a2":"JO"},"geometry":{"type":"Point","coordinates":[35.931354,31.951971]}},{"type":"Feature","properties":{"capital":"Nur-Sultan","country":"Kazakhstan","iso_a2":"KZ"},"geometry":{"type":"Point","coordinates":[71.427774,51.181125]}},{"type":"Feature","properties":{"capital":"Nairobi","country":"Kenya","iso_a2":"KE"},"geometry":{"type":"Point","coordinates":[36.814711,-1.281401]}},{"type":"Feature","properties":{"capital":"Tarawa","country":"Kiribati","iso_a2":"KI"},"geometry":{"type":"Point","coordinates":[173.017571,1.338188]}},{"type":"Feature","properties":{"capital":"Pristina","country":"Kosovo","iso_a2":"-99"},"geometry":{"type":"Point","coordinates":[21.165984,42.66671]}},{"type":"Feature","properties":{"capital":"Kuwait City","country":"Kuwait","iso_a2":"KW"},"geometry":{"type":"Point","coordinates":[47.976355,29.371664]}},{"type":"Feature","properties":{"capital":"Bishkek","country":"Kyrgyzstan","iso_a2":"KG"},"geometry":{"type":"Point","coordinates":[74.583258,42.875025]}},{"type":"Feature","properties":{"capital":"Vientiane","country":"Laos","iso_a2":"LA"},"geometry":{"type":"Point","coordinates":[102.59998,17.966693]}},{"type":"Feature","properties":{"capital":"Riga","country":"Latvia","iso_a2":"LV"},"geometry":{"type":"Point","coordinates":[24.099965,56.950024]}},{"type":"Feature","properties":{"capital":"Beirut","country":"Lebanon","iso_a2":"LB"},"geometry":{"type":"Point","coordinates":[35.507762,33.873921]}},{"type":"Feature","properties":{"capital":"Maseru","country":"Lesotho","iso_a2":"LS"},"geometry":{"type":"Point","coordinates":[27.483273,-29.316674]}},{"type":"Feature","properties":{"capital":"Monrovia","country":"Liberia","iso_a2":"LR"},"geometry":{"type":"Point","coordinates":[-10.79966,6.314582]}},{"type":"Feature","properties":{"capital":"Tripoli","country":"Libya","iso_a2":"LY"},"geometry":{"type":"Point","coordinates":[13.180012,32.8925]}},{"type":"Feature","properties":{"capital":"Vaduz","country":"Liechtenstein","iso_a2":"LI"},"geometry":{"type":"Point","coordinates":[9.51667,47.133724]}},{"type":"Feature","properties":{"capital":"Vilnius","country":"Lithuania","iso_a2":"LT"},"geometry":{"type":"Point","coordinates":[25.316635,54.683366]}},{"type":"Feature","properties":{"capital":"Luxembourg","country":"Luxembourg","iso_a2":"LU"},"geometry":{"type":"Point","coordinates":[6.130003,49.61166]}},{"type":"Feature","properties":{"capital":"Antananarivo","country":"Madagascar","iso_a2":"MG"},"geometry":{"type":"Point","coordinates":[47.514678,-18.914692]}},{"type":"Feature","properties":{"capital":"Lilongwe","country":"Malawi","iso_a2":"MW"},"geometry":{"type":"Point","coordinates":[33.783302,-13.983295]}},{"type":"Feature","properties":{"capital":"Kuala Lumpur","country":"Malaysia","iso_a2":"MY"},"geometry":{"type":"Point","coordinates":[101.698037,3.168612]}},{"type":"Feature","properties":{"capital":"Malé","country":"Maldives","iso_a2":"MV"},"geometry":{"type":"Point","coordinates":[73.499948,4.166708]}},{"type":"Feature","properties":{"capital":"Bamako","country":"Mali","iso_a2":"ML"},"geometry":{"type":"Point","coordinates":[-8.001985,12.651961]}},{"type":"Feature","properties":{"capital":"Valletta","country":"Malta","iso_a2":"MT"},"geometry":{"type":"Point","coordinates":[14.514711,35.899733]}},{"type":"Feature","properties":{"capital":"Majuro","country":"Marshall Islands","iso_a2":"MH"},"geometry":{"type":"Point","coordinates":[171.38,7.103004]}},{"type":"Feature","properties":{"capital":"Nouakchott","country":"Mauritania","iso_a2":"MR"},"geometry":{"type":"Point","coordinates":[-15.97534,18.086427]}},{"type":"Feature","properties":{"capital":"Port Louis","country":"Mauritius","iso_a2":"MU"},"geometry":{"type":"Point","coordinates":[57.499994,-20.166639]}},{"type":"Feature","properties":{"capital":"Mexico City","country":"Mexico","iso_a2":"MX"},"geometry":{"type":"Point","coordinates":[-99.132934,19.444388]}},{"type":"Feature","properties":{"capital":"Chișinău","country":"Moldova","iso_a2":"MD"},"geometry":{"type":"Point","coordinates":[28.857711,47.005024]}},{"type":"Feature","properties":{"capital":"Monaco","country":"Monaco","iso_a2":"MC"},"geometry":{"type":"Point","coordinates":[7.406913,43.739646]}},{"type":"Feature","properties":{"capital":"Ulaanbaatar","country":"Mongolia","iso_a2":"MN"},"geometry":{"type":"Point","coordinates":[106.91467,47.918619]}},{"type":"Feature","properties":{"capital":"Podgorica","country":"Montenegro","iso_a2":"ME"},"geometry":{"type":"Point","coordinates":[19.266307,42.465973]}},{"type":"Feature","properties":{"capital":"Rabat","country":"Morocco","iso_a2":"MA"},"geometry":{"type":"Point","coordinates":[-6.836408,34.025307]}},{"type":"Feature","properties":{"capital":"Maputo","country":"Mozambique","iso_a2":"MZ"},"geometry":{"type":"Point","coordinates":[32.587217,-25.953332]}},{"type":"Feature","properties":{"capital":"Naypyidaw","country":"Myanmar","iso_a2":"MM"},"geometry":{"type":"Point","coordinates":[96.116673,19.768503]}},{"type":"Feature","properties":{"capital":"Windhoek","country":"Namibia","iso_a2":"NA"},"geometry":{"type":"Point","coordinates":[17.083546,-22.570006]}},{"type":"Feature","properties":{"capital":"Kathmandu","country":"Nepal","iso_a2":"NP"},"geometry":{"type":"Point","coordinates":[85.314696,27.718638]}},{"type":"Feature","properties":{"capital":"Amsterdam","country":"Netherlands","iso_a2":"NL"},"geometry":{"type":"Point","coordinates":[4.914694,52.351915]}},{"type":"Feature","properties":{"capital":"Wellington","country":"New Zealand","iso_a2":"NZ"},"geometry":{"type":"Point","coordinates":[174.783266,-41.299988]}},{"type":"Feature","properties":{"capital":"Managua","country":"Nicaragua","iso_a2":"NI"},"geometry":{"type":"Point","coordinates":[-86.270438,12.154962]}},{"type":"Feature","properties":{"capital":"Niamey","country":"Niger","iso_a2":"NE"},"geometry":{"type":"Point","coordinates":[2.11471,13.518652]}},{"type":"Feature","properties":{"capital":"Abuja","country":"Nigeria","iso_a2":"NG"},"geometry":{"type":"Point","coordinates":[7.531382,9.085279]}},{"type":"Feature","properties":{"capital":"Pyongyang","country":"North Korea","iso_a2":"KP"},"geometry":{"type":"Point","coordinates":[125.752745,39.021385]}},{"type":"Feature","properties":{"capital":"Skopje","country":"North Macedonia","iso_a2":"MK"},"geometry":{"type":"Point","coordinates":[21.433462,42.000006]}},{"type":"Feature","properties":{"capital":"Oslo","country":"Norway","iso_a2":"NO"},"geometry":{"type":"Point","coordinates":[10.748033,59.918636]}},{"type":"Feature","properties":{"capital":"Muscat","country":"Oman","iso_a2":"OM"},"geometry":{"type":"Point","coordinates":[58.593312,23.613325]}},{"type":"Feature","properties":{"capital":"Islamabad","country":"Pakistan","iso_a2":"PK"},"geometry":{"type":"Point","coordinates":[73.164689,33.701942]}},{"type":"Feature","properties":{"capital":"Melekeok","country":"Palau","iso_a2":"PW"},"geometry":{"type":"Point","coordinates":[134.626549,7.487396]}},{"type":"Feature","properties":{"capital":"Panama City","country":"Panama","iso_a2":"PA"},"geometry":{"type":"Point","coordinates":[-79.534983,8.969963]}},{"type":"Feature","properties":{"capital":"Port Moresby","country":"Papua New Guinea","iso_a2":"PG"},"geometry":{"type":"Point","coordinates":[147.192504,-9.464708]}},{"type":"Feature","properties":{"capital":"Asunción","country":"Paraguay","iso_a2":"PY"},"geometry":{"type":"Point","coordinates":[-57.643451,-25.294457]}},{"type":"Feature","properties":{"capital":"Lima","country":"Peru","iso_a2":"PE"},"geometry":{"type":"Point","coordinates":[-77.052008,-12.046067]}},{"type":"Feature","properties":{"capital":"Manila","country":"Philippines","iso_a2":"PH"},"geometry":{"type":"Point","coordinates":[120.980271,14.606105]}},{"type":"Feature","properties":{"capital":"Warsaw","country":"Poland","iso_a2":"PL"},"geometry":{"type":"Point","coordinates":[20.998054,52.251947]}},{"type":"Feature","properties":{"capital":"Lisbon","country":"Portugal","iso_a2":"PT"},"geometry":{"type":"Point","coordinates":[-9.146812,38.724669]}},{"type":"Feature","properties":{"capital":"Doha","country":"Qatar","iso_a2":"QA"},"geometry":{"type":"Point","coordinates":[51.532968,25.286556]}},{"type":"Feature","properties":{"capital":"Bucharest","country":"Romania","iso_a2":"RO"},"geometry":{"type":"Point","coordinates":[26.098001,44.435318]}},{"type":"Feature","properties":{"capital":"Moscow","country":"Russia","iso_a2":"RU"},"geometry":{"type":"Point","coordinates":[37.613577,55.75411]}},{"type":"Feature","properties":{"capital":"Kigali","country":"Rwanda","iso_a2":"RW"},"geometry":{"type":"Point","coordinates":[30.058586,-1.951644]}},{"type":"Feature","properties":{"capital":"Basseterre","country":"Saint Kitts and Nevis","iso_a2":"KN"},"geometry":{"type":"Point","coordinates":[-62.717009,17.302031]}},{"type":"Feature","properties":{"capital":"Castries","country":"Saint Lucia","iso_a2":"LC"},"geometry":{"type":"Point","coordinates":[-61.000008,14.001974]}},{"type":"Feature","properties":{"capital":"Kingstown","country":"Saint Vincent and the Grenadines","iso_a2":"VC"},"geometry":{"type":"Point","coordinates":[-61.212062,13.148279]}},{"type":"Feature","properties":{"capital":"Apia","country":"Samoa","iso_a2":"WS"},"geometry":{"type":"Point","coordinates":[-171.738642,-13.841545]}},{"type":"Feature","properties":{"capital":"San Marino","country":"San Marino","iso_a2":"SM"},"geometry":{"type":"Point","coordinates":[12.44177,43.936096]}},{"type":"Feature","properties":{"capital":"São Tomé","country":"Sao Tome and Principe","iso_a2":"ST"},"geometry":{"type":"Point","coordinates":[6.733325,0.333402]}},{"type":"Feature","properties":{"capital":"Riyadh","country":"Saudi Arabia","iso_a2":"SA"},"geometry":{"type":"Point","coordinates":[46.770796,24.642779]}},{"type":"Feature","properties":{"capital":"Dakar","country":"Senegal","iso_a2":"SN"},"geometry":{"type":"Point","coordinates":[-17.475076,14.717778]}},{"type":"Feature","properties":{"capital":"Belgrade","country":"Serbia","iso_a2":"RS"},"geometry":{"type":"Point","coordinates":[20.466045,44.820591]}},{"type":"Feature","properties":{"capital":"Victoria","country":"Seychelles","iso_a2":"SC"},"geometry":{"type":"Point","coordinates":[55.44999,-4.616632]}},{"type":"Feature","properties":{"capital":"Freetown","country":"Sierra Leone","iso_a2":"SL"},"geometry":{"type":"Point","coordinates":[-13.236162,8.471957]}},{"type":"Feature","properties":{"capital":"Singapore","country":"Singapore","iso_a2":"SG"},"geometry":{"type":"Point","coordinates":[103.853875,1.294979]}},{"type":"Feature","properties":{"capital":"Bratislava","country":"Slovakia","iso_a2":"SK"},"geometry":{"type":"Point","coordinates":[17.116981,48.150018]}},{"type":"Feature","properties":{"capital":"Ljubljana","country":"Slovenia","iso_a2":"SI"},"geometry":{"type":"Point","coordinates":[14.514969,46.055288]}},{"type":"Feature","properties":{"capital":"Honiara","country":"Solomon Islands","iso_a2":"SB"},"geometry":{"type":"Point","coordinates":[159.949766,-9.437994]}},{"type":"Feature","properties":{"capital":"Mogadishu","country":"Somalia","iso_a2":"SO"},"geometry":{"type":"Point","coordinates":[45.364732,2.068627]}},{"type":"Feature","properties":{"capital":"Hargeisa","country":"Somaliland","iso_a2":"-99"},"geometry":{"type":"Point","coordinates":[44.06531,9.560022]}},{"type":"Feature","properties":{"capital":"Bloemfontein","country":"South Africa","iso_a2":"ZA"},"geometry":{"type":"Point","coordinates":[26.229913,-29.119994]}},{"type":"Feature","properties":{"capital":"Pretoria","country":"South Africa","iso_a2":"ZA"},"geometry":{"type":"Point","coordinates":[28.227483,-25.704975]}},{"type":"Feature","properties":{"capital":"Cape Town","country":"South Africa","iso_a2":"ZA"},"geometry":{"type":"Point","coordinates":[18.433042,-33.918065]}},{"type":"Feature","properties":{"capital":"Seoul","country":"South Korea","iso_a2":"KR"},"geometry":{"type":"Point","coordinates":[126.997785,37.568295]}},{"type":"Feature","properties":{"capital":"Madrid","country":"Spain","iso_a2":"ES"},"geometry":{"type":"Point","coordinates":[-3.685298,40.401972]}},{"type":"Feature","properties":{"capital":"Colombo","country":"Sri Lanka","iso_a2":"LK"},"geometry":{"type":"Point","coordinates":[79.857751,6.931966]}},{"type":"Feature","properties":{"capital":"Khartoum","country":"Sudan","iso_a2":"SD"},"geometry":{"type":"Point","coordinates":[32.532233,15.590024]}},{"type":"Feature","properties":{"capital":"Paramaribo","country":"Suriname","iso_a2":"SR"},"geometry":{"type":"Point","coordinates":[-55.167031,5.83503]}},{"type":"Feature","properties":{"capital":"Stockholm","country":"Sweden","iso_a2":"SE"},"geometry":{"type":"Point","coordinates":[18.095389,59.352706]}},{"type":"Feature","properties":{"capital":"Bern","country":"Switzerland","iso_a2":"CH"},"geometry":{"type":"Point","coordinates":[7.466976,46.916683]}},{"type":"Feature","properties":{"capital":"Damascus","country":"Syria","iso_a2":"SY"},"geometry":{"type":"Point","coordinates":[36.29805,33.50198]}},{"type":"Feature","properties":{"capital":"Taipei","country":"Taiwan","iso_a2":"TW"},"geometry":{"type":"Point","coordinates":[121.568333,25.035833]}},{"type":"Feature","properties":{"capital":"Dushanbe","country":"Tajikistan","iso_a2":"TJ"},"geometry":{"type":"Point","coordinates":[68.773879,38.560035]}},{"type":"Feature","properties":{"capital":"Dar es Salaam","country":"Tanzania","iso_a2":"TZ"},"geometry":{"type":"Point","coordinates":[39.266396,-6.798067]}},{"type":"Feature","properties":{"capital":"Bangkok","country":"Thailand","iso_a2":"TH"},"geometry":{"type":"Point","coordinates":[100.514699,13.751945]}},{"type":"Feature","properties":{"capital":"Nassau","country":"The Bahamas","iso_a2":"BS"},"geometry":{"type":"Point","coordinates":[-77.350044,25.08339]}},{"type":"Feature","properties":{"capital":"Banjul","country":"The Gambia","iso_a2":"GM"},"geometry":{"type":"Point","coordinates":[-16.591702,13.453877]}},{"type":"Feature","properties":{"capital":"Lomé","country":"Togo","iso_a2":"TG"},"geometry":{"type":"Point","coordinates":[1.220811,6.133883]}},{"type":"Feature","properties":{"capital":"Nuku'alofa","country":"Tonga","iso_a2":"TO"},"geometry":{"type":"Point","coordinates":[-175.220565,-21.138512]}},{"type":"Feature","properties":{"capital":"Port-of-Spain","country":"Trinidad and Tobago","iso_a2":"TT"},"geometry":{"type":"Point","coordinates":[-61.517031,10.651997]}},{"type":"Feature","properties":{"capital":"Tunis","country":"Tunisia","iso_a2":"TN"},"geometry":{"type":"Point","coordinates":[10.179678,36.802778]}},{"type":"Feature","properties":{"capital":"Ankara","country":"Turkey","iso_a2":"TR"},"geometry":{"type":"Point","coordinates":[32.862446,39.929184]}},{"type":"Feature","properties":{"capital":"Ashgabat","country":"Turkmenistan","iso_a2":"TM"},"geometry":{"type":"Point","coordinates":[58.383299,37.949995]}},{"type":"Feature","properties":{"capital":"Funafuti","country":"Tuvalu","iso_a2":"TV"},"geometry":{"type":"Point","coordinates":[179.216647,-8.516652]}},{"type":"Feature","properties":{"capital":"Kampala","country":"Uganda","iso_a2":"UG"},"geometry":{"type":"Point","coordinates":[32.581378,0.318605]}},{"type":"Feature","properties":{"capital":"Kyiv","country":"Ukraine","iso_a2":"UA"},"geometry":{"type":"Point","coordinates":[30.514682,50.435313]}},{"type":"Feature","properties":{"capital":"Abu Dhabi","country":"United Arab Emirates","iso_a2":"AE"},"geometry":{"type":"Point","coordinates":[54.366593,24.466684]}},{"type":"Feature","properties":{"capital":"London","country":"United Kingdom","iso_a2":"GB"},"geometry":{"type":"Point","coordinates":[-0.118668,51.501941]}},{"type":"Feature","properties":{"capital":"Washington,  D.C.","country":"United States of America","iso_a2":"US"},"geometry":{"type":"Point","coordinates":[-77.011364,38.901495]}},{"type":"Feature","properties":{"capital":"Montevideo","country":"Uruguay","iso_a2":"UY"},"geometry":{"type":"Point","coordinates":[-56.172998,-34.856096]}},{"type":"Feature","properties":{"capital":"Tashkent","country":"Uzbekistan","iso_a2":"UZ"},"geometry":{"type":"Point","coordinates":[69.292987,41.313648]}},{"type":"Feature","properties":{"capital":"Port Vila","country":"Vanuatu","iso_a2":"VU"},"geometry":{"type":"Point","coordinates":[168.316641,-17.73335]}},{"type":"Feature","properties":{"capital":"Vatican City","country":"Vatican","iso_a2":"VA"},"geometry":{"type":"Point","coordinates":[12.453387,41.903282]}},{"type":"Feature","properties":{"capital":"Caracas","country":"Venezuela","iso_a2":"VE"},"geometry":{"type":"Point","coordinates":[-66.918983,10.502944]}},{"type":"Feature","properties":{"capital":"Hanoi","country":"Vietnam","iso_a2":"VN"},"geometry":{"type":"Point","coordinates":[105.848068,21.035273]}},{"type":"Feature","properties":{"capital":"Sanaa","country":"Yemen","iso_a2":"YE"},"geometry":{"type":"Point","coordinates":[44.204648,15.356679]}},{"type":"Feature","properties":{"capital":"Lusaka","country":"Zambia","iso_a2":"ZM"},"geometry":{"type":"Point","coordinates":[28.281382,-15.414698]}},{"type":"Feature","properties":{"capital":"Harare","country":"Zimbabwe","iso_a2":"ZW"},"geometry":{"type":"Point","coordinates":[31.042764,-17.815844]}}]}